[{"OBJECT_NAME":"STARLINK-35997","OBJECT_ID":"2025-280Y","EPOCH":"2026-03-09T22:21:26.676864","MEAN_MOTION":14.98330654,"ECCENTRICITY":0.00019646,"INCLINATION":70.0036,"RA_OF_ASC_NODE":333.7811,"ARG_OF_PERICENTER":266.2728,"MEAN_ANOMALY":93.8207,"EPHEMERIS_TYPE":0,"CLASSIFICATION_TYPE":"U","NORAD_CAT_ID":66843,"ELEMENT_SET_NO":999,"REV_AT_EPOCH":1611,"BSTAR":0.00074923265,"MEAN_MOTION_DOT":8.858e-5,"MEAN_MOTION_DDOT":0},{"OBJECT_NAME":"SL-8 DEB","OBJECT_ID":"1965-020EN","EPOCH":"2026-03-09T21:30:01.358784","MEAN_MOTION":14.21304929,"ECCENTRICITY":0.03828379,"INCLINATION":56.171,"RA_OF_ASC_NODE":335.2447,"ARG_OF_PERICENTER":331.0415,"MEAN_ANOMALY":26.9803,"EPHEMERIS_TYPE":0,"CLASSIFICATION_TYPE":"U","NORAD_CAT_ID":3038,"ELEMENT_SET_NO":999,"REV_AT_EPOCH":21169,"BSTAR":0.0030592028,"MEAN_MOTION_DOT":0.00014042,"MEAN_MOTION_DDOT":0}]
